{
  "type": "FeatureCollection",
  "name": "synthetic candidate sites, AT-9",
  "country_code": "AT",
  "region_code": "9",
  "source_date": "2025-09-15",
  "crs": { "type": "name", "properties": { "name": "urn:ogc:def:crs:OGC:1.3:CRS84" } },
  "features": [
    {
      "type": "Feature",
      "properties": { "site_id": "S-0001", "name": "Rail siding, south-east", "positional_accuracy_m": 1.0 },
      "geometry": {
        "type": "Polygon",
        "coordinates": [[[16.4000, 48.1800], [16.4020, 48.1800], [16.4020, 48.1813], [16.4000, 48.1813], [16.4000, 48.1800]]]
      }
    },
    {
      "type": "Feature",
      "properties": { "site_id": "S-0002", "name": "Depot yard, west" },
      "geometry": {
        "type": "Polygon",
        "coordinates": [[[16.3300, 48.2500], [16.3312, 48.2500], [16.3312, 48.2508], [16.3300, 48.2508], [16.3300, 48.2500]]]
      }
    },
    {
      "type": "Feature",
      "properties": { "site_id": "S-0003", "name": "Logistics area, east", "source_date": "2025-08-01" },
      "geometry": {
        "type": "Polygon",
        "coordinates": [[[16.4500, 48.2200], [16.4530, 48.2200], [16.4530, 48.2215], [16.4500, 48.2215], [16.4500, 48.2200]]]
      }
    },
    {
      "type": "Feature",
      "properties": { "name": "Parcel without identifier (must be rejected)" },
      "geometry": {
        "type": "Polygon",
        "coordinates": [[[16.3800, 48.2000], [16.3810, 48.2000], [16.3810, 48.2006], [16.3800, 48.2006], [16.3800, 48.2000]]]
      }
    },
    {
      "type": "Feature",
      "properties": { "site_id": "S-0005", "country_code": "DE", "name": "Feature tagged for another country (must be rejected)" },
      "geometry": {
        "type": "Polygon",
        "coordinates": [[[16.3900, 48.2100], [16.3910, 48.2100], [16.3910, 48.2106], [16.3900, 48.2106], [16.3900, 48.2100]]]
      }
    }
  ]
}
